{"spaceTrack"{"CCSDS_OMM_VERS":"2.0","COMMENT":"GENERATED VIA SPACE-TRACK.ORG API","CREATION_DATE":"2021-01-26T06:26:10","ORIGINATOR":"18 SPCS","OBJECT_NAME":"STARLINK-1258","OBJECT_ID":"2020-019X","CENTER_NAME":"EARTH","REF_FRAME":"TEME","TIME_SYSTEM":"UTC","MEAN_ELEMENT_THEORY":"SGP4","EPOCH":"2021-01-26T06:26:10","MEAN_MOTION":15.06394919,"ECCENTRICITY":0.0002437,"INCLINATION":53.0563,"RA_OF_ASC_NODE":252.9559,"ARG_OF_PERICENTER":78.6161,"MEAN_ANOMALY":281.5102,"EPHEMERIS_TYPE":0,"CLASSIFICATION_TYPE":"U","NORAD_CAT_ID":45381,"ELEMENT_SET_NO":999,"REV_AT_EPOCH":4843,"BSTAR":-0.000073895,"MEAN_MOTION_DOT":-0.00001382,"MEAN_MOTION_DDOT":0,"SEMIMAJOR_AXIS":6925.364,"PERIOD":95.592,"APOAPSIS":548.917,"PERIAPSIS":545.541,"OBJECT_TYPE":"PAYLOAD","RCS_SIZE":"LARGE","COUNTRY_CODE":"US","LAUNCH_DATE":"2020-03-18","SITE":"AFETR","DECAY_DATE":null,"DECAYED":0,"FILE":2940260,"GP_ID":170412769,"TLE_LINE0":"0 STARLINK-1258","TLE_LINE1":"1 45381U 20019X   21026.56034498 -.00001382  00000-0 -73895-4 0  9995","TLE_LINE2":"2 45381  53.0563 252.9559 0002437  78.6161 281.5102 15.06394919 48432"},"version":"v1.0","launch":"5eb87d43ffd86e000604b385","longitude":66,"latitude":35.893294104265124,"height_km":548.969032363887,"velocity_kms":7.592635269152669,"id":"5eed7715096e590006985775"}
{"spaceTrack"{"CCSDS_OMM_VERS":"2.0","COMMENT":"GENERATED VIA SPACE-TRACK.ORG API","CREATION_DATE":"2021-01-26T06:26:10","ORIGINATOR":"18 SPCS","OBJECT_NAME":"STARLINK-1298","OBJECT_ID":"2020-019BF","CENTER_NAME":"EARTH","REF_FRAME":"TEME","TIME_SYSTEM":"UTC","MEAN_ELEMENT_THEORY":"SGP4","EPOCH":"2021-01-26T06:26:10","MEAN_MOTION":15.06377106,"ECCENTRICITY":0.0001068,"INCLINATION":53.0063,"RA_OF_ASC_NODE":242.7316,"ARG_OF_PERICENTER":73.5671,"MEAN_ANOMALY":286.5435,"EPHEMERIS_TYPE":0,"CLASSIFICATION_TYPE":"U","NORAD_CAT_ID":45413,"ELEMENT_SET_NO":999,"REV_AT_EPOCH":4839,"BSTAR":0.00048279,"MEAN_MOTION_DOT":0.00006913,"MEAN_MOTION_DDOT":0,"SEMIMAJOR_AXIS":6925.419,"PERIOD":95.594,"APOAPSIS":548.023,"PERIAPSIS":546.544,"OBJECT_TYPE":"PAYLOAD","RCS_SIZE":"LARGE","COUNTRY_CODE":"US","LAUNCH_DATE":"2020-03-18","SITE":"AFETR","DECAY_DATE":null,"DECAYED":0,"FILE":2940507,"GP_ID":170441589,"TLE_LINE0":"0 STARLINK-1298","TLE_LINE1":"1 45413U 20019BF  21026.61286049  .00006913  00000-0  48279-3 0  9998","TLE_LINE2":"2 45413  53.0063 242.7316 0001068  73.5671 286.5435 15.06377106 48398"},"version":"v1.0","launch":"5eb87d43ffd86e000604b385","longitude":79,"latitude":-22.209618147186443,"height_km":554.0360217090256,"velocity_kms":7.5844992850441715,"id":"5eed7715096e590006985776"}
{"spaceTrack"{"CCSDS_OMM_VERS":"2.0","COMMENT":"GENERATED VIA SPACE-TRACK.ORG API","CREATION_DATE":"2021-01-26T06:26:10","ORIGINATOR":"18 SPCS","OBJECT_NAME":"STARLINK-1297","OBJECT_ID":"2020-019AM","CENTER_NAME":"EARTH","REF_FRAME":"TEME","TIME_SYSTEM":"UTC","MEAN_ELEMENT_THEORY":"SGP4","EPOCH":"2021-01-26T06:26:10","MEAN_MOTION":15.06409197,"ECCENTRICITY":0.0001537,"INCLINATION":53.0536,"RA_OF_ASC_NODE":252.2116,"ARG_OF_PERICENTER":85.85,"MEAN_ANOMALY":274.2665,"EPHEMERIS_TYPE":0,"CLASSIFICATION_TYPE":"U","NORAD_CAT_ID":45395,"ELEMENT_SET_NO":999,"REV_AT_EPOCH":4822,"BSTAR":-0.00027593,"MEAN_MOTION_DOT":-0.0000439,"MEAN_MOTION_DDOT":0,"SEMIMAJOR_AXIS":6925.32,"PERIOD":95.592,"APOAPSIS":548.25,"PERIAPSIS":546.121,"OBJECT_TYPE":"PAYLOAD","RCS_SIZE":"LARGE","COUNTRY_CODE":"US","LAUNCH_DATE":"2020-03-18","SITE":"AFETR","DECAY_DATE":null,"DECAYED":0,"FILE":2940506,"GP_ID":170441564,"TLE_LINE0":"0 STARLINK-1297","TLE_LINE1":"1 45395U 20019AM  21026.72621196 -.00004390  00000-0 -27593-3 0  9990","TLE_LINE2":"2 45395  53.0536 252.2116 0001537  85.8500 274.2665 15.06409197 48221"},"version":"v1.0","launch":"5eb87d43ffd86e000604b385","longitude":8,"latitude":-36.039055714695415,"height_km":559.448920329779,"velocity_kms":7.581160554673859,"id":"5eed7715096e590006985777"}
{"spaceTrack"{"CCSDS_OMM_VERS":"2.0","COMMENT":"GENERATED VIA SPACE-TRACK.ORG API","CREATION_DATE":"2021-01-26T06:26:10","ORIGINATOR":"18 SPCS","OBJECT_NAME":"STARLINK-1255","OBJECT_ID":"2020-019AR","CENTER_NAME":"EARTH","REF_FRAME":"TEME","TIME_SYSTEM":"UTC","MEAN_ELEMENT_THEORY":"SGP4","EPOCH":"2021-01-26T06:26:10","MEAN_MOTION":15.06392793,"ECCENTRICITY":0.000159,"INCLINATION":53.0274,"RA_OF_ASC_NODE":244.1688,"ARG_OF_PERICENTER":65.734,"MEAN_ANOMALY":294.3815,"EPHEMERIS_TYPE":0,"CLASSIFICATION_TYPE":"U","NORAD_CAT_ID":45399,"ELEMENT_SET_NO":999,"REV_AT_EPOCH":4834,"BSTAR":-0.000082819,"MEAN_MOTION_DOT":-0.00001515,"MEAN_MOTION_DDOT":0,"SEMIMAJOR_AXIS":6925.371,"PERIOD":95.593,"APOAPSIS":548.337,"PERIAPSIS":546.135,"OBJECT_TYPE":"PAYLOAD","RCS_SIZE":"LARGE","COUNTRY_CODE":"US","LAUNCH_DATE":"2020-03-18","SITE":"AFETR","DECAY_DATE":null,"DECAYED":0,"FILE":2940260,"GP_ID":170413495,"TLE_LINE0":"0 STARLINK-1255","TLE_LINE1":"1 45399U 20019AR  21026.28850326 -.00001515  00000-0 -82819-4 0  9993","TLE_LINE2":"2 45399  53.0274 244.1688 0001590  65.7340 294.3815 15.06392793 48342"},"version":"v1.0","launch":"5eb87d43ffd86e000604b385","longitude":53,"latitude":9.531429907131951,"height_km":547.576189110001,"velocity_kms":7.590070111584311,"id":"5eed7715096e590006985778"}
{"spaceTrack"{"CCSDS_OMM_VERS":"2.0","COMMENT":"GENERATED VIA SPACE-TRACK.ORG API","CREATION_DATE":"2021-01-26T06:26:10","ORIGINATOR":"18 SPCS","OBJECT_NAME":"STARLINK-1307","OBJECT_ID":"2020-019AP","CENTER_NAME":"EARTH","REF_FRAME":"TEME","TIME_SYSTEM":"UTC","MEAN_ELEMENT_THEORY":"SGP4","EPOCH":"2021-01-26T06:26:10","MEAN_MOTION":15.06397245,"ECCENTRICITY":0.0002029,"INCLINATION":53.0553,"RA_OF_ASC_NODE":254.0393,"ARG_OF_PERICENTER":79.5823,"MEAN_ANOMALY":280.5394,"EPHEMERIS_TYPE":0,"CLASSIFICATION_TYPE":"U","NORAD_CAT_ID":45397,"ELEMENT_SET_NO":999,"REV_AT_EPOCH":4822,"BSTAR":-0.000041141,"MEAN_MOTION_DOT":-0.00000894,"MEAN_MOTION_DDOT":0,"SEMIMAJOR_AXIS":6925.357,"PERIOD":95.592,"APOAPSIS":548.627,"PERIAPSIS":545.817,"OBJECT_TYPE":"PAYLOAD","RCS_SIZE":"LARGE","COUNTRY_CODE":"US","LAUNCH_DATE":"2020-03-18","SITE":"AFETR","DECAY_DATE":null,"DECAYED":0,"FILE":2940260,"GP_ID":170413031,"TLE_LINE0":"0 STARLINK-1307","TLE_LINE1":"1 45397U 20019AP  21026.32075832 -.00000894  00000-0 -41141-4 0  9999","TLE_LINE2":"2 45397  53.0553 254.0393 0002029  79.5823 280.5394 15.06397245 48223"},"version":"v1.0","launch":"5eb87d43ffd86e000604b385","longitude":15,"latitude":-5.728735789785091,"height_km":548.9857943654761,"velocity_kms":7.588289831604566,"id":"5eed7715096e590006985779"}
{"spaceTrack"{"CCSDS_OMM_VERS":"2.0","COMMENT":"GENERATED VIA SPACE-TRACK.ORG API","CREATION_DATE":"2021-01-26T06:26:10","ORIGINATOR":"18 SPCS","OBJECT_NAME":"STARLINK-1304","OBJECT_ID":"2020-019S","CENTER_NAME":"EARTH","REF_FRAME":"TEME","TIME_SYSTEM":"UTC","MEAN_ELEMENT_THEORY":"SGP4","EPOCH":"2021-01-26T06:26:10","MEAN_MOTION":15.06200871,"ECCENTRICITY":0.0001602,"INCLINATION":53.0026,"RA_OF_ASC_NODE":271.9049,"ARG_OF_PERICENTER":63.406,"MEAN_ANOMALY":296.7092,"EPHEMERIS_TYPE":0,"CLASSIFICATION_TYPE":"U","NORAD_CAT_ID":45376,"ELEMENT_SET_NO":999,"REV_AT_EPOCH":4819,"BSTAR":0.0027774,"MEAN_MOTION_DOT":0.00041109,"MEAN_MOTION_DDOT":0,"SEMIMAJOR_AXIS":6925.959,"PERIOD":95.605,"APOAPSIS":548.933,"PERIAPSIS":546.714,"OBJECT_TYPE":"PAYLOAD","RCS_SIZE":"LARGE","COUNTRY_CODE":"US","LAUNCH_DATE":"2020-03-18","SITE":"AFETR","DECAY_DATE":null,"DECAYED":0,"FILE":2940506,"GP_ID":170442059,"TLE_LINE0":"0 STARLINK-1304","TLE_LINE1":"1 45376U 20019S   21026.79808674  .00041109  00000-0  27774-2 0  9991","TLE_LINE2":"2 45376  53.0026 271.9049 0001602  63.4060 296.7092 15.06200871 48190"},"version":"v1.0","launch":"5eb87d43ffd86e000604b385","longitude":39,"latitude":-51.325082217500594,"height_km":566.3882836839412,"velocity_kms":7.577298306681749,"id":"5eed7715096e59000698577a"}
{"spaceTrack"{"CCSDS_OMM_VERS":"2.0","COMMENT":"GENERATED VIA SPACE-TRACK.ORG API","CREATION_DATE":"2021-01-26T06:26:10","ORIGINATOR":"18 SPCS","OBJECT_NAME":"STARLINK-1337","OBJECT_ID":"2020-025BD","CENTER_NAME":"EARTH","REF_FRAME":"TEME","TIME_SYSTEM":"UTC","MEAN_ELEMENT_THEORY":"SGP4","EPOCH":"2021-01-26T06:26:10","MEAN_MOTION":15.06188851,"ECCENTRICITY":0.0001748,"INCLINATION":53.002,"RA_OF_ASC_NODE":182.3956,"ARG_OF_PERICENTER":107.4462,"MEAN_ANOMALY":252.6717,"EPHEMERIS_TYPE":0,"CLASSIFICATION_TYPE":"U","NORAD_CAT_ID":45582,"ELEMENT_SET_NO":999,"REV_AT_EPOCH":4335,"BSTAR":0.0030829,"MEAN_MOTION_DOT":0.00045676,"MEAN_MOTION_DDOT":0,"SEMIMAJOR_AXIS":6925.996,"PERIOD":95.606,"APOAPSIS":549.071,"PERIAPSIS":546.65,"OBJECT_TYPE":"PAYLOAD","RCS_SIZE":"LARGE","COUNTRY_CODE":"US","LAUNCH_DATE":"2020-04-22","SITE":"AFETR","DECAY_DATE":null,"DECAYED":0,"FILE":2940340,"GP_ID":170437238,"TLE_LINE0":"0 STARLINK-1337","TLE_LINE1":"1 45582U 20025BD  21026.68844956  .00045676  00000-0  30829-2 0  9996","TLE_LINE2":"2 45582  53.0020 182.3956 0001748 107.4462 252.6717 15.06188851 43352"},"version":"v1.0","launch":"5eb87d44ffd86e000604b386","longitude":21,"latitude":17.377628571781663,"height_km":547.2655844033288,"velocity_kms":7.591503700154085,"id":"5eed7715096e59000698577b"}
